{
  "type": "FeatureCollection",
  "features": [
    {
      "type": "Feature",
      "properties": {
        "norad_id": 37902,
        "name": "FENGYUN 1C DEB",
        "group": "fengyun-1c-debris",
        "lat": -39.71501743965867,
        "lon": 27.228809999273558,
        "alt_km": 959.4121188011068,
        "timestamp": "2025-12-21T07:34:34.805063+00:00",
        "meta_object_name": "FENGYUN 1C DEB",
        "meta_object_id": "1999-025ENB",
        "meta_epoch": "2025-12-07T14:03:14.833440",
        "meta_mean_motion": 13.52640367,
        "meta_eccentricity": 0.03237878,
        "meta_inclination": 98.6837,
        "meta_ra_of_asc_node": 202.4677,
        "meta_arg_of_pericenter": 320.2654,
        "meta_mean_anomaly": 37.5166,
        "meta_ephemeris_type": 0,
        "meta_classification_type": "U",
        "meta_norad_cat_id": 37902,
        "meta_element_set_no": 999,
        "meta_rev_at_epoch": 62907,
        "meta_bstar": 0.003775391,
        "meta_mean_motion_dot": 3.447e-05,
        "meta_mean_motion_ddot": 0,
        "tle_line1": "1 37902U 99025ENB 25341.58558835  .00003447  00000+0  37754-2 0  9993",
        "tle_line2": "2 37902  98.6837 202.4677 0323787 320.2654  37.5166 13.52640367629073"
      },
      "geometry": {
        "type": "Point",
        "coordinates": [
          27.228809999273558,
          -39.71501743965867
        ]
      }
    },
    {
      "type": "Feature",
      "properties": {
        "norad_id": 37906,
        "name": "FENGYUN 1C DEB",
        "group": "fengyun-1c-debris",
        "lat": 4.091494577404088,
        "lon": 35.613983171767515,
        "alt_km": 843.9735917325752,
        "timestamp": "2025-12-21T07:34:34.805073+00:00",
        "meta_object_name": "FENGYUN 1C DEB",
        "meta_object_id": "1999-025ENF",
        "meta_epoch": "2025-12-17T09:43:38.923104",
        "meta_mean_motion": 13.80796617,
        "meta_eccentricity": 0.01626691,
        "meta_inclination": 99.5992,
        "meta_ra_of_asc_node": 32.3357,
        "meta_arg_of_pericenter": 16.2438,
        "meta_mean_anomaly": 0.3742,
        "meta_ephemeris_type": 0,
        "meta_classification_type": "U",
        "meta_norad_cat_id": 37906,
        "meta_element_set_no": 999,
        "meta_rev_at_epoch": 59520,
        "meta_bstar": 0.00065282289,
        "meta_mean_motion_dot": 7.13e-06,
        "meta_mean_motion_ddot": 0,
        "tle_line1": "1 37906U 99025ENF 25351.40531161  .00000713  00000+0  65282-3 0  9993",
        "tle_line2": "2 37906  99.5992  32.3357 0162669  16.2438   0.3742 13.80796617595202"
      },
      "geometry": {
        "type": "Point",
        "coordinates": [
          35.613983171767515,
          4.091494577404088
        ]
      }
    },
    {
      "type": "Feature",
      "properties": {
        "norad_id": 37907,
        "name": "FENGYUN 1C DEB",
        "group": "fengyun-1c-debris",
        "lat": -7.077525496799738,
        "lon": -72.5702570108297,
        "alt_km": 775.5461417677989,
        "timestamp": "2025-12-21T07:34:34.805082+00:00",
        "meta_object_name": "FENGYUN 1C DEB",
        "meta_object_id": "1999-025ENG",
        "meta_epoch": "2025-12-18T02:47:52.898208",
        "meta_mean_motion": 14.23621509,
        "meta_eccentricity": 0.00633304,
        "meta_inclination": 99.0798,
        "meta_ra_of_asc_node": 105.2668,
        "meta_arg_of_pericenter": 171.0108,
        "meta_mean_anomaly": 189.2219,
        "meta_ephemeris_type": 0,
        "meta_classification_type": "U",
        "meta_norad_cat_id": 37907,
        "meta_element_set_no": 999,
        "meta_rev_at_epoch": 83349,
        "meta_bstar": 0.0022047538,
        "meta_mean_motion_dot": 5.087e-05,
        "meta_mean_motion_ddot": 0,
        "tle_line1": "1 37907U 99025ENG 25352.11658447  .00005087  00000+0  22048-2 0  9991",
        "tle_line2": "2 37907  99.0798 105.2668 0063330 171.0108 189.2219 14.23621509833493"
      },
      "geometry": {
        "type": "Point",
        "coordinates": [
          -72.5702570108297,
          -7.077525496799738
        ]
      }
    },
    {
      "type": "Feature",
      "properties": {
        "norad_id": 37908,
        "name": "FENGYUN 1C DEB",
        "group": "fengyun-1c-debris",
        "lat": 3.1536553482869656,
        "lon": 27.238794499763657,
        "alt_km": 805.9706390092924,
        "timestamp": "2025-12-21T07:34:34.805091+00:00",
        "meta_object_name": "FENGYUN 1C DEB",
        "meta_object_id": "1999-025ENH",
        "meta_epoch": "2025-12-20T21:31:55.616736",
        "meta_mean_motion": 14.36620139,
        "meta_eccentricity": 0.00743022,
        "meta_inclination": 99.1523,
        "meta_ra_of_asc_node": 27.3032,
        "meta_arg_of_pericenter": 134.3544,
        "meta_mean_anomaly": 226.3761,
        "meta_ephemeris_type": 0,
        "meta_classification_type": "U",
        "meta_norad_cat_id": 37908,
        "meta_element_set_no": 999,
        "meta_rev_at_epoch": 64178,
        "meta_bstar": 0.00031883822,
        "meta_mean_motion_dot": 9.19e-06,
        "meta_mean_motion_ddot": 0,
        "tle_line1": "1 37908U 99025ENH 25354.89717149  .00000919  00000+0  31884-3 0  9992",
        "tle_line2": "2 37908  99.1523  27.3032 0074302 134.3544 226.3761 14.36620139641783"
      },
      "geometry": {
        "type": "Point",
        "coordinates": [
          27.238794499763657,
          3.1536553482869656
        ]
      }
    },
    {
      "type": "Feature",
      "properties": {
        "norad_id": 37912,
        "name": "FENGYUN 1C DEB",
        "group": "fengyun-1c-debris",
        "lat": -62.15648210680189,
        "lon": -17.898135775504166,
        "alt_km": 871.8172442067234,
        "timestamp": "2025-12-21T07:34:34.805100+00:00",
        "meta_object_name": "FENGYUN 1C DEB",
        "meta_object_id": "1999-025ENM",
        "meta_epoch": "2025-12-17T20:31:02.815680",
        "meta_mean_motion": 14.1153782,
        "meta_eccentricity": 0.00921589,
        "meta_inclination": 99.2285,
        "meta_ra_of_asc_node": 320.6183,
        "meta_arg_of_pericenter": 45.8497,
        "meta_mean_anomaly": 315.0203,
        "meta_ephemeris_type": 0,
        "meta_classification_type": "U",
        "meta_norad_cat_id": 37912,
        "meta_element_set_no": 999,
        "meta_rev_at_epoch": 77360,
        "meta_bstar": 0.0021693094,
        "meta_mean_motion_dot": 4.053e-05,
        "meta_mean_motion_ddot": 0,
        "tle_line1": "1 37912U 99025ENM 25351.85489370  .00004053  00000+0  21693-2 0  9991",
        "tle_line2": "2 37912  99.2285 320.6183 0092158  45.8497 315.0203 14.11537820773603"
      },
      "geometry": {
        "type": "Point",
        "coordinates": [
          -17.898135775504166,
          -62.15648210680189
        ]
      }
    },
    {
      "type": "Feature",
      "properties": {
        "norad_id": 37918,
        "name": "FENGYUN 1C DEB",
        "group": "fengyun-1c-debris",
        "lat": -37.682299952223985,
        "lon": -47.78945277830013,
        "alt_km": 765.765847663095,
        "timestamp": "2025-12-21T07:34:34.805110+00:00",
        "meta_object_name": "FENGYUN 1C DEB",
        "meta_object_id": "1999-025ENT",
        "meta_epoch": "2025-12-20T20:02:06.921312",
        "meta_mean_motion": 14.34412668,
        "meta_eccentricity": 0.00547908,
        "meta_inclination": 99.0289,
        "meta_ra_of_asc_node": 304.6539,
        "meta_arg_of_pericenter": 259.6508,
        "meta_mean_anomaly": 99.8496,
        "meta_ephemeris_type": 0,
        "meta_classification_type": "U",
        "meta_norad_cat_id": 37918,
        "meta_element_set_no": 999,
        "meta_rev_at_epoch": 3658,
        "meta_bstar": 0.00044138632,
        "meta_mean_motion_dot": 1.215e-05,
        "meta_mean_motion_ddot": 0,
        "tle_line1": "1 37918U 99025ENT 25354.83480233  .00001215  00000+0  44139-3 0  9995",
        "tle_line2": "2 37918  99.0289 304.6539 0054790 259.6508  99.8496 14.34412668 36583"
      },
      "geometry": {
        "type": "Point",
        "coordinates": [
          -47.78945277830013,
          -37.682299952223985
        ]
      }
    },
    {
      "type": "Feature",
      "properties": {
        "norad_id": 37919,
        "name": "FENGYUN 1C DEB",
        "group": "fengyun-1c-debris",
        "lat": -76.15417408788751,
        "lon": 73.22995613137354,
        "alt_km": 810.9436990174354,
        "timestamp": "2025-12-21T07:34:34.805119+00:00",
        "meta_object_name": "FENGYUN 1C DEB",
        "meta_object_id": "1999-025ENU",
        "meta_epoch": "2025-12-12T06:55:51.957984",
        "meta_mean_motion": 14.2676163,
        "meta_eccentricity": 0.00496798,
        "meta_inclination": 99.0576,
        "meta_ra_of_asc_node": 284.2227,
        "meta_arg_of_pericenter": 17.6806,
        "meta_mean_anomaly": 342.6088,
        "meta_ephemeris_type": 0,
        "meta_classification_type": "U",
        "meta_norad_cat_id": 37919,
        "meta_element_set_no": 999,
        "meta_rev_at_epoch": 64902,
        "meta_bstar": 0.00082874062,
        "meta_mean_motion_dot": 1.986e-05,
        "meta_mean_motion_ddot": 0,
        "tle_line1": "1 37919U 99025ENU 25346.28879581  .00001986  00000+0  82874-3 0  9997",
        "tle_line2": "2 37919  99.0576 284.2227 0049679  17.6806 342.6088 14.26761630649025"
      },
      "geometry": {
        "type": "Point",
        "coordinates": [
          73.22995613137354,
          -76.15417408788751
        ]
      }
    }
  ]
}